OBJECT_NAME,OBJECT_ID,EPOCH,MEAN_MOTION,ECCENTRICITY,INCLINATION,RA_OF_ASC_NODE,ARG_OF_PERICENTER,MEAN_ANOMALY,EPHEMERIS_TYPE,CLASSIFICATION_TYPE,NORAD_CAT_ID,ELEMENT_SET_NO,REV_AT_EPOCH,BSTAR,MEAN_MOTION_DOT,MEAN_MOTION_DDOT
STARLINK-5503,2023-094AR,2026-06-19T10:53:08.017728,15.27582126,.00023541,43.0040,165.1628,284.8714,75.1877,0,U,57257,999,16346,.36674288E-4,.747E-5,0
STARLINK-5476,2023-094AS,2026-06-19T01:11:32.936064,15.27574598,.00015484,43.0036,167.2861,281.0302,79.0376,0,U,57258,999,16274,.11496363E-4,.54E-6,0
STARLINK-5026,2023-094AU,2026-06-18T17:24:27.638496,15.27582472,.00017879,43.0044,169.1520,284.7309,75.3345,0,U,57260,999,16333,.30652193E-4,.581E-5,0
STARLINK-5485,2023-094AV,2026-06-19T02:03:09.220032,15.27571916,.00014572,43.0029,178.0052,266.8122,93.2563,0,U,57261,999,16262,-.2041514E-4,-.824E-5,0
STARLINK-5504,2023-094AW,2026-06-19T01:05:59.400096,15.27578133,.00015241,43.0028,167.2569,280.1017,79.9663,0,U,57262,999,16274,.16712037E-4,.198E-5,0
STARLINK-5509,2023-094AX,2026-06-19T00:23:25.512864,15.27575289,.00018396,43.0050,178.3494,291.1807,68.8848,0,U,57263,999,16261,-.15934419E-4,-.701E-5,0
STARLINK-5858,2023-094AY,2026-06-19T01:20:47.834880,15.27578170,.00017034,43.0032,167.3334,270.8250,89.2407,0,U,57264,999,16274,.24035853E-4,.399E-5,0
STARLINK-30198,2023-096A,2026-06-19T14:35:49.295616,15.25680341,.00083096,42.9892,11.8771,257.1902,102.8020,0,U,57290,999,16315,.17017451E-2,.44254E-3,0
STARLINK-30239,2023-096B,2026-06-19T14:18:19.963296,15.27542878,.00016235,43.0067,7.5840,254.4895,105.5777,0,U,57291,999,16320,.22433144E-3,.5909E-4,0
STARLINK-30235,2023-096E,2026-06-19T12:53:26.159712,15.27578110,.00008682,43.0036,7.9991,267.6812,92.3940,0,U,57294,999,16319,.3182865E-4,.614E-5,0
STARLINK-30236,2023-096L,2026-06-19T14:33:10.036224,15.27561968,.00019856,43.0052,7.6506,281.0829,78.9800,0,U,57300,999,16324,-.619483E-5,-.433E-5,0
STARLINK-30201,2023-096M,2026-06-18T23:06:22.902912,15.27575999,.00014184,43.0032,11.4217,285.5894,74.4801,0,U,57301,999,16220,.26588215E-4,.469E-5,0
STARLINK-30233,2023-096N,2026-06-19T13:04:31.704096,15.27575622,.00014224,43.0065,8.0334,275.2717,84.7973,0,U,57302,999,16229,.56001448E-4,.1279E-4,0
STARLINK-30184,2023-096W,2026-06-19T12:21:49.928544,15.27570859,.00012145,43.0040,339.4124,273.3601,86.7112,0,U,57310,999,16262,.27423189E-4,.492E-5,0
STARLINK-6290,2023-099A,2026-06-19T01:28:46.196256,15.27577652,.00012392,43.0038,39.5911,228.2410,131.8336,0,U,57328,999,16249,-.21434413E-4,-.852E-5,0
STARLINK-6138,2023-099B,2026-06-19T08:22:24.191904,15.27575404,.00011516,43.0038,38.3089,273.9666,86.1055,0,U,57329,999,16162,.33060477E-4,.648E-5,0
STARLINK-6212,2023-099C,2026-06-19T08:02:02.634144,15.27575931,.00011603,43.0039,38.2026,262.3491,97.7229,0,U,57330,999,16162,.5080801E-5,-.122E-5,0
STARLINK-6234,2023-099D,2026-06-19T08:07:36.377472,15.27567960,.00012606,43.0044,38.2330,274.7692,85.3016,0,U,57331,999,16162,-.29752361E-4,-.108E-4,0
STARLINK-5831,2023-099E,2026-06-19T08:11:17.598624,15.27569467,.00011667,43.0048,38.2504,265.7979,94.2740,0,U,57332,999,16162,.13006415E-4,.96E-6,0
STARLINK-5585,2023-099F,2026-06-19T08:16:50.643840,15.27577087,.00011068,43.0054,38.2788,268.8950,91.1775,0,U,57333,999,16162,.9426941E-5,-.3E-7,0
STARLINK-5589,2023-099G,2026-06-19T08:27:57.206016,15.27589258,.00014533,43.0087,38.3303,257.5561,102.5128,0,U,57334,999,16162,-.31275739E-4,-.1123E-4,0
STARLINK-6316,2023-099H,2026-06-19T01:03:46.781280,15.27581565,.00014087,43.0029,36.9144,264.7782,95.2909,0,U,57335,999,16161,.931411E-5,-.6E-7,0
STARLINK-6320,2023-099J,2026-06-15T23:09:11.190240,15.27577025,.0001446,43.0048,54.2003,269.0886,90.9800,0,U,57336,999,16114,.2832E-4,.517E-5,0
STARLINK-6322,2023-099K,2026-06-19T08:39:03.014784,15.27577025,.00017447,43.0066,38.3864,258.2722,101.7934,0,U,57337,999,16162,.20982327E-4,.315E-5,0
STARLINK-6374,2023-099L,2026-06-19T08:42:44.690400,15.27580015,.00016024,43.0066,38.4070,267.2257,92.8411,0,U,57338,999,16162,.31436002E-4,.603E-5,0
STARLINK-6332,2023-099M,2026-06-19T08:33:29.579904,15.27579318,.00021231,43.0071,38.3608,270.6904,89.3705,0,U,57339,999,16162,.21074938E-4,.317E-5,0
STARLINK-6321,2023-099N,2026-06-19T01:14:09.577536,15.27583139,.00011263,43.0010,40.3630,227.0894,132.9863,0,U,57340,999,16157,.67475142E-4,.1595E-4,0
STARLINK-6377,2023-099P,2026-06-19T08:14:18.282624,15.27582459,.00008395,43.0035,41.6739,247.7954,112.2809,0,U,57341,999,16158,.5488934E-4,.1249E-4,0
STARLINK-6375,2023-099Q,2026-06-19T08:30:30.233376,15.27579614,.00017003,43.0060,34.9368,256.7703,103.2959,0,U,57342,999,16166,.30585002E-4,.579E-5,0
STARLINK-6379,2023-099R,2026-06-19T01:03:04.112640,15.27575445,.00015608,43.0042,40.3104,269.3504,90.7169,0,U,57343,999,16157,.32658753E-4,.636E-5,0
