STARLINK-5503           
1 57257U 23094AR  26170.45356502  .00000747  00000+0  36674-4 0  9997
2 57257  43.0040 165.1628 0002354 284.8714  75.1877 15.27582126163460
STARLINK-5476           
1 57258U 23094AS  26170.04968676  .00000054  00000+0  11496-4 0  9990
2 57258  43.0036 167.2861 0001548 281.0302  79.0376 15.27574598162745
STARLINK-5026           
1 57260U 23094AU  26169.72531989  .00000581  00000+0  30652-4 0  9999
2 57260  43.0044 169.1520 0001787 284.7309  75.3345 15.27582472163333
STARLINK-5485           
1 57261U 23094AV  26170.08552338 -.00000824  00000+0 -20415-4 0  9990
2 57261  43.0029 178.0052 0001457 266.8122  93.2563 15.27571916162627
STARLINK-5504           
1 57262U 23094AW  26170.04582639  .00000198  00000+0  16712-4 0  9991
2 57262  43.0028 167.2569 0001524 280.1017  79.9663 15.27578133162740
STARLINK-5509           
1 57263U 23094AX  26170.01626751 -.00000701  00000+0 -15934-4 0  9990
2 57263  43.0050 178.3494 0001839 291.1807  68.8848 15.27575289162611
STARLINK-5858           
1 57264U 23094AY  26170.05610920  .00000399  00000+0  24036-4 0  9990
2 57264  43.0032 167.3334 0001703 270.8250  89.2407 15.27578170162743
STARLINK-30198          
1 57290U 23096A   26170.60820944  .00044254  00000+0  17017-2 0  9998
2 57290  42.9892  11.8771 0008309 257.1902 102.8020 15.25680341163154
STARLINK-30239          
1 57291U 23096B   26170.59606439  .00005909  00000+0  22433-3 0  9991
2 57291  43.0067   7.5840 0001623 254.4895 105.5777 15.27542878163202
STARLINK-30235          
1 57294U 23096E   26170.53710833  .00000614  00000+0  31829-4 0  9990
2 57294  43.0036   7.9991 0000868 267.6812  92.3940 15.27578110163198
STARLINK-30236          
1 57300U 23096L   26170.60636616 -.00000433  00000+0 -61948-5 0  9999
2 57300  43.0052   7.6506 0001985 281.0829  78.9800 15.27561968163246
STARLINK-30201          
1 57301U 23096M   26169.96276508  .00000469  00000+0  26588-4 0  9994
2 57301  43.0032  11.4217 0001418 285.5894  74.4801 15.27575999162205
STARLINK-30233          
1 57302U 23096N   26170.54481139  .00001279  00000+0  56001-4 0  9992
2 57302  43.0065   8.0334 0001422 275.2717  84.7973 15.27575622162295
STARLINK-30184          
1 57310U 23096W   26170.51516121  .00000492  00000+0  27423-4 0  9990
2 57310  43.0040 339.4124 0001214 273.3601  86.7112 15.27570859162626
STARLINK-6290           
1 57328U 23099A   26170.06164579 -.00000852  00000+0 -21434-4 0  9996
2 57328  43.0038  39.5911 0001239 228.2410 131.8336 15.27577652162491
STARLINK-6138           
1 57329U 23099B   26170.34889111  .00000648  00000+0  33060-4 0  9993
2 57329  43.0038  38.3089 0001151 273.9666  86.1055 15.27575404161625
STARLINK-6212           
1 57330U 23099C   26170.33475271 -.00000122  00000+0  50808-5 0  9990
2 57330  43.0039  38.2026 0001160 262.3491  97.7229 15.27575931161622
STARLINK-6234           
1 57331U 23099D   26170.33861548 -.00001080  00000+0 -29752-4 0  9995
2 57331  43.0044  38.2330 0001260 274.7692  85.3016 15.27567960161628
STARLINK-5831           
1 57332U 23099E   26170.34117591  .00000096  00000+0  13006-4 0  9998
2 57332  43.0048  38.2504 0001166 265.7979  94.2740 15.27569467161626
STARLINK-5585           
1 57333U 23099F   26170.34503060 -.00000003  00000+0  94269-5 0  9999
2 57333  43.0054  38.2788 0001106 268.8950  91.1775 15.27577087161626
STARLINK-5589           
1 57334U 23099G   26170.35274544 -.00001123  00000+0 -31276-4 0  9996
2 57334  43.0087  38.3303 0001453 257.5561 102.5128 15.27589258161627
STARLINK-6316           
1 57335U 23099H   26170.04429145 -.00000006  00000+0  93141-5 0  9990
2 57335  43.0029  36.9144 0001408 264.7782  95.2909 15.27581565161613
STARLINK-6320           
1 57336U 23099J   26166.96471285  .00000517  00000+0  28320-4 0  9991
2 57336  43.0048  54.2003 0001446 269.0886  90.9800 15.27577025161143
STARLINK-6322           
1 57337U 23099K   26170.36045156  .00000315  00000+0  20982-4 0  9997
2 57337  43.0066  38.3864 0001744 258.2722 101.7934 15.27577025161624
STARLINK-6374           
1 57338U 23099L   26170.36301725  .00000603  00000+0  31436-4 0  9991
2 57338  43.0066  38.4070 0001602 267.2257  92.8411 15.27580015161624
STARLINK-6332           
1 57339U 23099M   26170.35659236  .00000317  00000+0  21075-4 0  9994
2 57339  43.0071  38.3608 0002123 270.6904  89.3705 15.27579318161624
STARLINK-6321           
1 57340U 23099N   26170.05149974  .00001595  00000+0  67475-4 0  9999
2 57340  43.0010  40.3630 0001126 227.0894 132.9863 15.27583139161573
STARLINK-6377           
1 57341U 23099P   26170.34326716  .00001249  00000+0  54889-4 0  9994
2 57341  43.0035  41.6739 0000839 247.7954 112.2809 15.27582459161587
STARLINK-6375           
1 57342U 23099Q   26170.35451659  .00000579  00000+0  30585-4 0  9993
2 57342  43.0060  34.9368 0001700 256.7703 103.2959 15.27579614161663
STARLINK-6379           
1 57343U 23099R   26170.04379760  .00000636  00000+0  32659-4 0  9990
2 57343  43.0042  40.3104 0001560 269.3504  90.7169 15.27575445161577
